GSAT0101 (PRN E11)      
1 37846U 11060A   24170.30988477 -.00000070  00000+0  00000+0 0  9992
2 37846  57.1292   1.5021 0003526  50.5971 309.4706  1.70476027 78691
GSAT0102 (PRN E12)      
1 37847U 11060B   24173.46300551 -.00000065  00000+0  00000+0 0  9998
2 37847  57.1302   1.4171 0003087  15.2679 165.6168  1.70475382 78758
GSAT0103 (PRN E19)      
1 38857U 12055A   24171.52216409  .00000028  00000+0  00000+0 0  9996
2 38857  55.4082 121.5416 0005249 281.6104  78.2819  1.70473626 72605
GSAT0201 (PRN E18)      
1 40128U 14050A   24171.78238732 -.00000079  00000+0  00000+0 0  9995
2 40128  49.6578 302.9601 1611661 151.3496 218.5737  1.85519468 64828
GSAT0202 (PRN E14)      
1 40129U 14050B   24172.57965887 -.00000073  00000+0  00000+0 0  9996
2 40129  49.6739 302.0048 1610460 152.1829 217.4795  1.85520203 66978
GSAT0203 (PRN E26)      
1 40544U 15017A   24171.84887527 -.00000067  00000+0  00000+0 0  9997
2 40544  56.9244   1.3943 0001418 257.9826 102.0366  1.70476281 56805
GSAT0204 (PRN E22)      
1 40545U 15017B   24172.10308729 -.00000067  00000+0  00000+0 0  9990
2 40545  56.9307   1.4029 0001440 217.0586 142.9663  1.70475724 19855
GSAT0205 (PRN E24)      
1 40889U 15045A   24171.28470799  .00000036  00000+0  00000+0 0  9992
2 40889  55.2159 241.7129 0002490   3.1514 356.9364  1.70473763 54602
GSAT0206 (PRN E30)      
1 40890U 15045B   24172.67854179  .00000046  00000+0  00000+0 0  9997
2 40890  55.2142 241.6696 0001210 356.6698   3.4243  1.70473961 54657
GSAT0209 (PRN E09)      
1 41174U 15079A   24172.26156224  .00000026  00000+0  00000+0 0  9999
2 41174  55.4270 121.2306 0005109 317.0165  42.8930  1.70474003 52969
GSAT0208 (PRN E08)      
1 41175U 15079B   24173.06790429  .00000023  00000+0  00000+0 0  9997
2 41175  55.4265 121.2064 0004527 316.8998  43.0132  1.70473945 52814
GSAT0211 (PRN E02)      
1 41549U 16030A   24171.43106081  .00000038  00000+0  00000+0 0  9990
2 41549  55.3631 241.7156 0002894 306.3904  53.6702  1.70473859 50262
GSAT0210 (PRN E01)      
1 41550U 16030B   24172.89552717  .00000047  00000+0  00000+0 0  9994
2 41550  55.3618 241.6763 0002893 263.5801  96.4830  1.70473969 50260
GSAT0207 (PRN E07)      
1 41859U 16069A   24170.79545041  .00000029  00000+0  00000+0 0  9997
2 41859  55.0910 121.2718 0005322 304.7118  55.1916  1.70473977 46986
GSAT0212 (PRN E03)      
1 41860U 16069B   24172.99606674  .00000023  00000+0  00000+0 0  9997
2 41860  55.0899 121.2073 0003969 328.9130  31.0119  1.70474083 47275
GSAT0213 (PRN E04)      
1 41861U 16069C   24172.19132932  .00000025  00000+0  00000+0 0  9993
2 41861  55.0915 121.2361 0005222 287.9516  71.9410  1.70472854 47250
GSAT0214 (PRN E05)      
1 41862U 16069D   24172.33664732  .00000025  00000+0  00000+0 0  9998
2 41862  55.0904 121.2258 0004270 292.4059  67.4981  1.70474173 47258
GSAT0215 (PRN E21)      
1 43055U 17079A   24173.41301370  .00000050  00000+0  00000+0 0  9990
2 43055  55.3392 241.4827 0002610 254.2506 105.8193  1.70474664 40614
GSAT0216 (PRN E25)      
1 43056U 17079B   24171.35836632  .00000037  00000+0  00000+0 0  9991
2 43056  55.3402 241.5394 0003478 265.9468  94.1004  1.70474960 40593
GSAT0217 (PRN E27)      
1 43057U 17079C   24172.16542055  .00000043  00000+0  00000+0 0  9992
2 43057  55.3380 241.5157 0004817 274.9529  85.0844  1.70474425 40599
GSAT0218 (PRN E31)      
1 43058U 17079D   24170.62571400  .00000032  00000+0  00000+0 0  9996
2 43058  55.3390 241.5557 0004446 265.3036  94.7278  1.70474807 40592
GSAT0221 (PRN E15)      
1 43564U 18060A   24171.69965892 -.00000067  00000+0  00000+0 0  9998
2 43564  57.3040   1.3994 0001990 300.5219  59.4940  1.70475926 36773
GSAT0222 (PRN E33)      
1 43565U 18060B   24171.33160224 -.00000067  00000+0  00000+0 0  9996
2 43565  57.3081   1.4111 0001426 221.4630 138.5621  1.70475625 36808
GSAT0219 (PRN E36)      
1 43566U 18060C   24172.72664485 -.00000065  00000+0  00000+0 0  9997
2 43566  57.3073   1.3756 0001605 330.8402  29.1846  1.70475861 36801
GSAT0220 (PRN E13)      
1 43567U 18060D   24171.77408354 -.00000066  00000+0  00000+0 0  9994
2 43567  57.3069   1.4017 0001560 319.7058  40.3181  1.70475818 36776
GSAT0223 (PRN E34)      
1 49809U 21116A   24171.61878174 -.00000067  00000+0  00000+0 0  9990
2 49809  57.2971   1.3000 0001668 144.0648 211.0793  1.70476026 15771
GSAT0224 (PRN E10)      
1 49810U 21116B   24173.50516885 -.00000065  00000+0  00000+0 0  9998
2 49810  57.2989   1.2479 0001597 117.6221  67.7463  1.70475915 15838
GSAT0225 (PRN E29)      
1 59598U 24079A   24162.57006490  .00000018  00000+0  00000+0 0  9991
2 59598  54.6844 121.6940 0021386 255.0217 286.2987  1.72327500   744
GSAT0227 (PRN E06)      
1 59600U 24079C   24162.27733445  .00000017  00000+0  00000+0 0  9998
2 59600  54.6844 121.7029 0021410 254.7953 104.9173  1.72327436   794
